STARLINK-1395
1 25680C 20035Z   21325.12329125  .00005509  00000-0  36907-3 0  3251
2 25680  53.0535 262.6842 0001860  70.6202 154.6170 15.06394528    16
